{
  "type": "FeatureCollection",
  "features": [
    {
      "type": "Feature",
      "properties": {
        "norad_id": 36744,
        "name": "COMS 1",
        "group": "weather",
        "lat": -1.0465794226830045,
        "lon": -88.45491863221191,
        "alt_km": 35782.86812167083,
        "timestamp": "2025-12-16T03:53:26.700920+00:00",
        "meta_object_name": "COMS 1",
        "meta_object_id": "2010-032A",
        "meta_epoch": "2025-12-15T05:26:08.911392",
        "meta_mean_motion": 1.00272011,
        "meta_eccentricity": 8.103e-05,
        "meta_inclination": 4.3467,
        "meta_ra_of_asc_node": 77.9715,
        "meta_arg_of_pericenter": 191.9681,
        "meta_mean_anomaly": 23.9012,
        "meta_ephemeris_type": 0,
        "meta_classification_type": "U",
        "meta_norad_cat_id": 36744,
        "meta_element_set_no": 999,
        "meta_rev_at_epoch": 4924,
        "meta_bstar": 0,
        "meta_mean_motion_dot": -3.26e-06,
        "meta_mean_motion_ddot": 0,
        "tle_line1": "1 36744U 10032A   25349.22649203 -.00000326  00000+0  00000+0 0  9991",
        "tle_line2": "2 36744   4.3467  77.9715 0000810 191.9681  23.9012  1.00272011 49240"
      },
      "geometry": {
        "type": "Point",
        "coordinates": [
          -88.45491863221191,
          -1.0465794226830045
        ]
      }
    },
    {
      "type": "Feature",
      "properties": {
        "norad_id": 37214,
        "name": "FENGYUN 3B",
        "group": "weather",
        "lat": 3.7959296080363023,
        "lon": -149.23477744931043,
        "alt_km": 861.1241602005966,
        "timestamp": "2025-12-16T03:53:26.700932+00:00",
        "meta_object_name": "FENGYUN 3B",
        "meta_object_id": "2010-059A",
        "meta_epoch": "2025-12-15T08:40:36.295680",
        "meta_mean_motion": 14.14789491,
        "meta_eccentricity": 0.00219526,
        "meta_inclination": 98.9912,
        "meta_ra_of_asc_node": 29.3572,
        "meta_arg_of_pericenter": 350.4509,
        "meta_mean_anomaly": 70.3265,
        "meta_ephemeris_type": 0,
        "meta_classification_type": "U",
        "meta_norad_cat_id": 37214,
        "meta_element_set_no": 999,
        "meta_rev_at_epoch": 78143,
        "meta_bstar": -6.0019536e-05,
        "meta_mean_motion_dot": -1.62e-06,
        "meta_mean_motion_ddot": 0,
        "tle_line1": "1 37214U 10059A   25349.36153120 -.00000162  00000+0 -60020-4 0  9998",
        "tle_line2": "2 37214  98.9912  29.3572 0021952 350.4509  70.3265 14.14789491781434"
      },
      "geometry": {
        "type": "Point",
        "coordinates": [
          -149.23477744931043,
          3.7959296080363023
        ]
      }
    },
    {
      "type": "Feature",
      "properties": {
        "norad_id": 37849,
        "name": "SUOMI NPP",
        "group": "weather",
        "lat": 72.58262637899966,
        "lon": -102.03238081215619,
        "alt_km": 818.6667533865138,
        "timestamp": "2025-12-16T03:53:26.700944+00:00",
        "meta_object_name": "SUOMI NPP",
        "meta_object_id": "2011-061A",
        "meta_epoch": "2025-12-15T07:14:21.196608",
        "meta_mean_motion": 14.19514971,
        "meta_eccentricity": 0.00023307,
        "meta_inclination": 98.7775,
        "meta_ra_of_asc_node": 286.6201,
        "meta_arg_of_pericenter": 115.5144,
        "meta_mean_anomaly": 244.6274,
        "meta_ephemeris_type": 0,
        "meta_classification_type": "U",
        "meta_norad_cat_id": 37849,
        "meta_element_set_no": 999,
        "meta_rev_at_epoch": 73235,
        "meta_bstar": 7.0765077e-05,
        "meta_mean_motion_dot": 1.05e-06,
        "meta_mean_motion_ddot": 0,
        "tle_line1": "1 37849U 11061A   25349.30163422  .00000105  00000+0  70765-4 0  9998",
        "tle_line2": "2 37849  98.7775 286.6201 0002330 115.5144 244.6274 14.19514971732351"
      },
      "geometry": {
        "type": "Point",
        "coordinates": [
          -102.03238081215619,
          72.58262637899966
        ]
      }
    },
    {
      "type": "Feature",
      "properties": {
        "norad_id": 38552,
        "name": "METEOSAT-10 (MSG-3)",
        "group": "weather",
        "lat": 4.203001984292461,
        "lon": 143.61244301861223,
        "alt_km": 35787.44171970971,
        "timestamp": "2025-12-16T03:53:26.700957+00:00",
        "meta_object_name": "METEOSAT-10 (MSG-3)",
        "meta_object_id": "2012-035B",
        "meta_epoch": "2025-12-15T01:24:14.488992",
        "meta_mean_motion": 1.00275691,
        "meta_eccentricity": 7.26e-05,
        "meta_inclination": 4.2342,
        "meta_ra_of_asc_node": 61.719,
        "meta_arg_of_pericenter": 262.6512,
        "meta_mean_anomaly": 140.8651,
        "meta_ephemeris_type": 0,
        "meta_classification_type": "U",
        "meta_norad_cat_id": 38552,
        "meta_element_set_no": 999,
        "meta_rev_at_epoch": 4901,
        "meta_bstar": 0,
        "meta_mean_motion_dot": 1.3e-07,
        "meta_mean_motion_ddot": 0,
        "tle_line1": "1 38552U 12035B   25349.05850103  .00000013  00000+0  00000+0 0  9991",
        "tle_line2": "2 38552   4.2342  61.7190 0000726 262.6512 140.8651  1.00275691 49013"
      },
      "geometry": {
        "type": "Point",
        "coordinates": [
          143.61244301861223,
          4.203001984292461
        ]
      }
    },
    {
      "type": "Feature",
      "properties": {
        "norad_id": 38771,
        "name": "METOP-B",
        "group": "weather",
        "lat": -48.85709314522291,
        "lon": 50.132418824512776,
        "alt_km": 829.5670166224982,
        "timestamp": "2025-12-16T03:53:26.700968+00:00",
        "meta_object_name": "METOP-B",
        "meta_object_id": "2012-049A",
        "meta_epoch": "2025-12-15T07:51:03.199104",
        "meta_mean_motion": 14.21409298,
        "meta_eccentricity": 0.00030093,
        "meta_inclination": 98.6798,
        "meta_ra_of_asc_node": 39.242,
        "meta_arg_of_pericenter": 138.49,
        "meta_mean_anomaly": 221.6506,
        "meta_ephemeris_type": 0,
        "meta_classification_type": "U",
        "meta_norad_cat_id": 38771,
        "meta_element_set_no": 999,
        "meta_rev_at_epoch": 68714,
        "meta_bstar": 8.5689185e-05,
        "meta_mean_motion_dot": 1.44e-06,
        "meta_mean_motion_ddot": 0,
        "tle_line1": "1 38771U 12049A   25349.32712036  .00000144  00000+0  85689-4 0  9997",
        "tle_line2": "2 38771  98.6798  39.2420 0003009 138.4900 221.6506 14.21409298687140"
      },
      "geometry": {
        "type": "Point",
        "coordinates": [
          50.132418824512776,
          -48.85709314522291
        ]
      }
    },
    {
      "type": "Feature",
      "properties": {
        "norad_id": 39216,
        "name": "INSAT-3D",
        "group": "weather",
        "lat": -0.2236212044914048,
        "lon": -87.0862337589649,
        "alt_km": 35781.89079414194,
        "timestamp": "2025-12-16T03:53:26.700981+00:00",
        "meta_object_name": "INSAT-3D",
        "meta_object_id": "2013-038B",
        "meta_epoch": "2025-12-15T07:09:21.525984",
        "meta_mean_motion": 1.00268926,
        "meta_eccentricity": 0.00013103,
        "meta_inclination": 1.4512,
        "meta_ra_of_asc_node": 84.9683,
        "meta_arg_of_pericenter": 165.8773,
        "meta_mean_anomaly": 70.2104,
        "meta_ephemeris_type": 0,
        "meta_classification_type": "U",
        "meta_norad_cat_id": 39216,
        "meta_element_set_no": 999,
        "meta_rev_at_epoch": 4523,
        "meta_bstar": 0,
        "meta_mean_motion_dot": -3.19e-06,
        "meta_mean_motion_ddot": 0,
        "tle_line1": "1 39216U 13038B   25349.29816581 -.00000319  00000+0  00000+0 0  9991",
        "tle_line2": "2 39216   1.4512  84.9683 0001310 165.8773  70.2104  1.00268926 45238"
      },
      "geometry": {
        "type": "Point",
        "coordinates": [
          -87.0862337589649,
          -0.2236212044914048
        ]
      }
    },
    {
      "type": "Feature",
      "properties": {
        "norad_id": 39260,
        "name": "FENGYUN 3C",
        "group": "weather",
        "lat": 52.13420810939614,
        "lon": 158.73205255666076,
        "alt_km": 829.6799365857869,
        "timestamp": "2025-12-16T03:53:26.700992+00:00",
        "meta_object_name": "FENGYUN 3C",
        "meta_object_id": "2013-052A",
        "meta_epoch": "2025-12-15T08:38:01.089312",
        "meta_mean_motion": 14.15697096,
        "meta_eccentricity": 0.00144243,
        "meta_inclination": 98.4765,
        "meta_ra_of_asc_node": 326.9112,
        "meta_arg_of_pericenter": 188.2976,
        "meta_mean_anomaly": 171.7962,
        "meta_ephemeris_type": 0,
        "meta_classification_type": "U",
        "meta_norad_cat_id": 39260,
        "meta_element_set_no": 999,
        "meta_rev_at_epoch": 63255,
        "meta_bstar": 7.6929208e-05,
        "meta_mean_motion_dot": 1.1e-06,
        "meta_mean_motion_ddot": 0,
        "tle_line1": "1 39260U 13052A   25349.35973483  .00000110  00000+0  76929-4 0  9994",
        "tle_line2": "2 39260  98.4765 326.9112 0014424 188.2976 171.7962 14.15697096632553"
      },
      "geometry": {
        "type": "Point",
        "coordinates": [
          158.73205255666076,
          52.13420810939614
        ]
      }
    }
  ]
}